{"type":"FeatureCollection","features":[{"type":"Feature","geometry":{"type":"MultiPolygon","coordinates":[[[[-68.634,-52.6364],[-68.25,-53.1],[-67.75,-53.85],[-66.45,-54.45],[-65.05,-54.7],[-65.5,-55.2],[-66.45,-55.25],[-66.9599,-54.8968],[-68.6334,-54.8695],[-68.634,-52.6364]]],[[[-57.6251,-30.2163],[-58.1424,-32.0445],[-58.1326,-33.0406],[-58.3496,-33.2632],[-58.4954,-34.4315],[-57.2258,-35.288],[-57.3624,-35.9774],[-56.7375,-36.4131],[-56.7883,-36.9016],[-57.7492,-38.1839],[-59.2319,-38.7202],[-61.2374,-38.9284],[-62.336,-38.8277],[-62.1258,-39.4241],[-62.3305,-40.1726],[-62.146,-40.6769],[-62.7458,-41.0288],[-63.7705,-41.1668],[-64.7321,-40.8027],[-65.118,-41.0643],[-64.9786,-42.058],[-64.3034,-42.359],[-63.7559,-42.0437],[-63.4581,-42.5631],[-64.3788,-42.8736],[-65.1818,-43.4954],[-65.3288,-44.5014],[-65.5653,-45.0368],[-66.51,-45.0396],[-67.2938,-45.5519],[-67.5805,-46.3018],[-66.5971,-47.0339],[-65.641,-47.2361],[-65.9851,-48.1333],[-67.1662,-48.6973],[-67.8161,-49.8697],[-68.7287,-50.2642],[-69.1385,-50.7325],[-68.8156,-51.7711],[-68.15,-52.35],[-69.4984,-52.1428],[-71.9148,-52.009],[-72.3294,-51.426],[-72.31,-50.677],[-72.9757,-50.7415],[-73.3281,-50.3788],[-73.4154,-49.3184],[-72.6482,-48.8786],[-72.3312,-48.2442],[-72.4474,-47.7385],[-71.9173,-46.8848],[-71.552,-45.5607],[-71.6593,-44.9737],[-71.2228,-44.7842],[-71.3298,-44.4075],[-71.7936,-44.2072],[-71.4641,-43.7876],[-71.9154,-43.4086],[-72.1489,-42.2549],[-71.7468,-42.0514],[-71.9157,-40.8323],[-71.6808,-39.8082],[-71.4135,-38.916],[-70.8147,-38.553],[-71.1186,-37.5768],[-71.1219,-36.6581],[-70.3648,-36.0051],[-70.388,-35.1697],[-69.8173,-34.1936],[-69.8148,-33.2739],[-70.0744,-33.0912],[-70.5351,-31.365],[-69.919,-30.3363],[-70.0136,-29.3679],[-69.6561,-28.4591],[-69.0012,-27.5212],[-68.2955,-26.8993],[-68.5948,-26.5069],[-68.386,-26.185],[-68.4177,-24.5186],[-67.3284,-24.0253],[-66.9852,-22.9863],[-67.1067,-22.7359],[-66.2733,-21.8323],[-64.9649,-22.0759],[-64.377,-22.7981],[-63.9868,-21.9936],[-62.8465,-22.035],[-62.6851,-22.249],[-60.8466,-23.8807],[-60.029,-24.0328],[-58.8071,-24.7715],[-57.7772,-25.1623],[-57.6337,-25.6037],[-58.6182,-27.1237],[-57.6098,-27.3959],[-56.4867,-27.5485],[-55.6958,-27.3878],[-54.7888,-26.6218],[-54.6253,-25.7393],[-54.13,-25.5476],[-53.6283,-26.1249],[-53.6487,-26.9235],[-55.1623,-27.8819],[-56.2909,-28.8528],[-57.6251,-30.2163]]]]},"properties":{"ADMIN":"Argentina","ADM0_A3":"ARG","ISO_A3":"ARG","POP_EST":44938712.0,"country_name":"Argentina"}},{"type":"Feature","geometry":{"type":"MultiPolygon","coordinates":[[[[-68.634,-52.6364],[-68.6334,-54.8695],[-66.9599,-54.8968],[-67.291,-55.3012],[-68.1486,-55.6118],[-69.2321,-55.4991],[-69.9581,-55.1984],[-71.0057,-55.0538],[-72.2639,-54.4951],[-73.2852,-53.9575],[-74.6625,-52.8375],[-73.8381,-53.0474],[-72.4342,-53.7154],[-71.1077,-54.0743],[-70.5918,-53.6158],[-70.2675,-52.9312],[-69.3456,-52.5183],[-68.634,-52.6364]]],[[[-69.5904,-17.58],[-69.1002,-18.2601],[-68.9668,-18.9817],[-68.4422,-19.4051],[-68.7572,-20.3727],[-68.2199,-21.4943],[-67.8282,-22.8729],[-67.1067,-22.7359],[-66.9852,-22.9863],[-67.3284,-24.0253],[-68.4177,-24.5186],[-68.386,-26.185],[-68.5948,-26.5069],[-68.2955,-26.8993],[-69.0012,-27.5212],[-69.6561,-28.4591],[-70.0136,-29.3679],[-69.919,-30.3363],[-70.5351,-31.365],[-70.0744,-33.0912],[-69.8148,-33.2739],[-69.8173,-34.1936],[-70.388,-35.1697],[-70.3648,-36.0051],[-71.1219,-36.6581],[-71.1186,-37.5768],[-70.8147,-38.553],[-71.4135,-38.916],[-71.6808,-39.8082],[-71.9157,-40.8323],[-71.7468,-42.0514],[-72.1489,-42.2549],[-71.9154,-43.4086],[-71.4641,-43.7876],[-71.7936,-44.2072],[-71.3298,-44.4075],[-71.2228,-44.7842],[-71.6593,-44.9737],[-71.552,-45.5607],[-71.9173,-46.8848],[-72.4474,-47.7385],[-72.3312,-48.2442],[-72.6482,-48.8786],[-73.4154,-49.3184],[-73.3281,-50.3788],[-72.9757,-50.7415],[-72.31,-50.677],[-72.3294,-51.426],[-71.9148,-52.009],[-69.4984,-52.1428],[-68.5715,-52.2994],[-69.4613,-52.292],[-69.9428,-52.5379],[-70.8451,-52.8992],[-71.0063,-53.8333],[-71.4298,-53.8565],[-72.5579,-53.5314],[-73.7028,-52.8351],[-74.9468,-52.2628],[-75.26,-51.6294],[-74.9766,-51.0434],[-75.4798,-50.3784],[-75.608,-48.6738],[-75.1828,-47.7119],[-74.1266,-46.9393],[-75.6444,-46.6476],[-74.6922,-45.764],[-74.3517,-44.103],[-73.2404,-44.455],[-72.7178,-42.3834],[-73.3889,-42.1175],[-73.7013,-43.3658],[-74.3319,-43.225],[-73.6771,-39.9422],[-73.2176,-39.2587],[-73.5056,-38.2829],[-73.5881,-37.1563],[-73.1667,-37.1238],[-72.5531,-35.5088],[-71.8617,-33.9091],[-71.4385,-32.4189],[-71.6687,-30.9206],[-71.3701,-30.0957],[-71.4899,-28.8614],[-70.9051,-27.6404],[-70.725,-25.7059],[-70.0912,-21.3933],[-70.1644,-19.7565],[-70.3726,-18.348],[-69.8584,-18.0927],[-69.5904,-17.58]]]]},"properties":{"ADMIN":"Chile","ADM0_A3":"CHL","ISO_A3":"CHL","POP_EST":18952038.0,"country_name":"Chile"}},{"type":"Feature","geometry":{"type":"Polygon","coordinates":[[[-61.2,-51.85],[-60.0,-51.25],[-59.15,-51.5],[-58.55,-51.1],[-57.75,-51.55],[-58.05,-51.9],[-59.4,-52.2],[-59.85,-51.85],[-60.7,-52.3],[-61.2,-51.85]]]},"properties":{"ADMIN":"Falkland Islands","ADM0_A3":"FLK","ISO_A3":"FLK","POP_EST":3398.0,"country_name":"Falkland Islands (Malvinas)"}},{"type":"Feature","geometry":{"type":"Polygon","coordinates":[[[-57.6251,-30.2163],[-56.976,-30.1097],[-55.9732,-30.8831],[-55.6015,-30.8539],[-54.5725,-31.4945],[-53.788,-32.0472],[-53.2096,-32.7277],[-53.6505,-33.202],[-53.3737,-33.7684],[-53.8064,-34.3968],[-54.9359,-34.9526],[-55.6741,-34.7527],[-56.2153,-34.8598],[-57.1397,-34.4305],[-57.8179,-34.4625],[-58.4271,-33.9095],[-58.3496,-33.2632],[-58.1326,-33.0406],[-58.1424,-32.0445],[-57.6251,-30.2163]]]},"properties":{"ADMIN":"Uruguay","ADM0_A3":"URY","ISO_A3":"URY","POP_EST":3461734.0,"country_name":"Uruguay"}},{"type":"Feature","geometry":{"type":"Polygon","coordinates":[[[-53.3737,-33.7684],[-53.6505,-33.202],[-53.2096,-32.7277],[-53.788,-32.0472],[-54.5725,-31.4945],[-55.6015,-30.8539],[-55.9732,-30.8831],[-56.976,-30.1097],[-57.6251,-30.2163],[-56.2909,-28.8528],[-55.1623,-27.8819],[-53.6487,-26.9235],[-53.6283,-26.1249],[-54.13,-25.5476],[-54.6253,-25.7393],[-54.4289,-25.1622],[-54.2935,-24.5708],[-54.293,-24.021],[-54.6528,-23.8396],[-55.0279,-24.0013],[-55.4007,-23.9569],[-55.5176,-23.572],[-55.6107,-22.6556],[-55.798,-22.3569],[-56.4733,-22.0863],[-56.8815,-22.2822],[-57.9372,-22.0902],[-57.8707,-20.7327],[-58.1664,-20.1767],[-57.8538,-19.97],[-57.95,-19.4],[-57.676,-18.9618],[-57.4984,-18.1742],[-57.7346,-17.5525],[-58.2808,-17.2717],[-58.3881,-16.8771],[-58.2412,-16.2996],[-60.1584,-16.2583],[-60.543,-15.0939],[-60.2511,-15.0772],[-60.2643,-14.646],[-60.4592,-14.354],[-60.5033,-13.776],[-61.0841,-13.4794],[-61.7132,-13.4892],[-62.1271,-13.1988],[-62.8031,-13.0007],[-63.1965,-12.627],[-64.3164,-12.462],[-65.4023,-11.5663],[-65.3219,-10.8959],[-65.4448,-10.5115],[-65.3384,-9.762],[-66.6469,-9.9313],[-67.1738,-10.3068],[-68.0482,-10.7121],[-68.2713,-11.0145],[-68.7862,-11.0364],[-69.5297,-10.9517],[-70.0938,-11.124],[-70.5487,-11.0091],[-70.4819,-9.4901],[-71.3024,-10.0794],[-72.1849,-10.0536],[-72.563,-9.5202],[-73.2267,-9.4622],[-73.0154,-9.0328],[-73.5711,-8.4244],[-73.9872,-7.5238],[-73.7234,-7.341],[-73.7245,-6.9186],[-73.12,-6.6299],[-73.2197,-6.0892],[-72.9645,-5.7413],[-72.8919,-5.2746],[-71.7484,-4.594],[-70.9288,-4.4016],[-70.7948,-4.2513],[-69.8936,-4.2982],[-69.4441,-1.5563],[-69.4205,-1.1226],[-69.5771,-0.55],[-70.0207,-0.1852],[-70.0156,0.5414],[-69.4524,0.7062],[-69.2524,0.6027],[-69.2186,0.9857],[-69.8046,1.0891],[-69.817,1.7148],[-67.8686,1.6925],[-67.5378,2.0372],[-67.26,1.72],[-67.065,1.1301],[-66.8763,1.2534],[-66.3258,0.7245],[-65.5483,0.7893],[-65.3547,1.0953],[-64.1993,1.4929],[-64.0831,1.9164],[-63.3688,2.2009],[-63.4229,2.4111],[-64.27,2.497],[-64.4088,3.1268],[-64.3685,3.7972],[-64.8161,4.0564],[-64.6287,4.1485],[-63.8883,4.0205],[-63.0932,3.7706],[-62.8045,4.007],[-62.0854,4.1621],[-60.9669,4.5365],[-60.6012,4.9181],[-60.7336,5.2003],[-60.2137,5.2445],[-59.981,5.0141],[-60.111,4.575],[-59.7674,4.4235],[-59.538,3.9588],[-59.8154,3.6065],[-59.9745,2.7552],[-59.7185,2.2496],[-59.646,1.7869],[-59.0309,1.3177],[-58.54,1.2681],[-58.4295,1.4639],[-58.1134,1.5072],[-57.661,1.6826],[-57.3358,1.9485],[-56.7827,1.8637],[-56.5394,1.8995],[-55.9957,1.8177],[-55.9056,2.022],[-56.0733,2.2208],[-55.9733,2.5104],[-55.5698,2.4215],[-55.0976,2.5237],[-54.0881,2.1056],[-53.7785,2.3767],[-53.5548,2.3349],[-53.4185,2.0534],[-52.9397,2.1249],[-52.5564,2.5047],[-52.2493,3.2411],[-51.6578,4.1562],[-51.3171,4.2035],[-51.0698,3.6504],[-50.5089,1.9016],[-49.9741,1.7365],[-49.9471,1.0462],[-50.6993,0.223],[-50.3882,-0.0784],[-48.6206,-0.2355],[-48.5845,-1.2378],[-47.825,-0.5816],[-46.5666,-0.941],[-44.9057,-1.5517],[-44.4176,-2.1378],[-44.5816,-2.6913],[-43.4188,-2.3831],[-41.4727,-2.912],[-39.9787,-2.8731],[-38.5004,-3.7007],[-37.2233,-4.8209],[-36.4529,-5.1094],[-35.5978,-5.1495],[-35.2354,-5.4649],[-34.73,-7.3432],[-35.1282,-8.9964],[-35.637,-9.6493],[-37.0465,-11.0407],[-37.6836,-12.1712],[-38.4239,-13.0381],[-38.6739,-13.0577],[-38.9533,-13.7934],[-38.8823,-15.6671],[-39.2673,-17.8677],[-39.5835,-18.2623],[-39.7608,-19.5991],[-40.7747,-20.9045],[-40.9448,-21.9373],[-41.7542,-22.3707],[-41.9883,-22.9701],[-43.0747,-22.9677],[-44.6478,-23.352],[-45.3521,-23.7968],[-46.4721,-24.089],[-47.649,-24.8852],[-48.4955,-25.877],[-48.641,-26.6237],[-48.4747,-27.1759],[-48.6615,-28.1861],[-48.8885,-28.6741],[-49.5873,-29.2245],[-50.6969,-30.9845],[-51.5762,-31.7777],[-52.2561,-32.2454],[-52.7121,-33.1966],[-53.3737,-33.7684]]]},"properties":{"ADMIN":"Brazil","ADM0_A3":"BRA","ISO_A3":"BRA","POP_EST":211049527.0,"country_name":"Brazil"}},{"type":"Feature","geometry":{"type":"Polygon","coordinates":[[[-69.5297,-10.9517],[-68.7862,-11.0364],[-68.2713,-11.0145],[-68.0482,-10.7121],[-67.1738,-10.3068],[-66.6469,-9.9313],[-65.3384,-9.762],[-65.4448,-10.5115],[-65.3219,-10.8959],[-65.4023,-11.5663],[-64.3164,-12.462],[-63.1965,-12.627],[-62.8031,-13.0007],[-62.1271,-13.1988],[-61.7132,-13.4892],[-61.0841,-13.4794],[-60.5033,-13.776],[-60.4592,-14.354],[-60.2643,-14.646],[-60.2511,-15.0772],[-60.543,-15.0939],[-60.1584,-16.2583],[-58.2412,-16.2996],[-58.3881,-16.8771],[-58.2808,-17.2717],[-57.7346,-17.5525],[-57.4984,-18.1742],[-57.676,-18.9618],[-57.95,-19.4],[-57.8538,-19.97],[-58.1664,-20.1767],[-58.1835,-19.8684],[-59.115,-19.3569],[-60.0436,-19.3427],[-61.7863,-19.6337],[-62.266,-20.5137],[-62.2912,-21.0516],[-62.6851,-22.249],[-62.8465,-22.035],[-63.9868,-21.9936],[-64.377,-22.7981],[-64.9649,-22.0759],[-66.2733,-21.8323],[-67.1067,-22.7359],[-67.8282,-22.8729],[-68.2199,-21.4943],[-68.7572,-20.3727],[-68.4422,-19.4051],[-68.9668,-18.9817],[-69.1002,-18.2601],[-69.5904,-17.58],[-68.9596,-16.5007],[-69.3898,-15.6601],[-69.1603,-15.324],[-69.3395,-14.9532],[-68.9489,-14.4536],[-68.8801,-12.8997],[-68.6651,-12.5613],[-69.5297,-10.9517]]]},"properties":{"ADMIN":"Bolivia","ADM0_A3":"BOL","ISO_A3":"BOL","POP_EST":11513100.0,"country_name":"Bolivia"}},{"type":"Feature","geometry":{"type":"Polygon","coordinates":[[[-69.8936,-4.2982],[-70.7948,-4.2513],[-70.9288,-4.4016],[-71.7484,-4.594],[-72.8919,-5.2746],[-72.9645,-5.7413],[-73.2197,-6.0892],[-73.12,-6.6299],[-73.7245,-6.9186],[-73.7234,-7.341],[-73.9872,-7.5238],[-73.5711,-8.4244],[-73.0154,-9.0328],[-73.2267,-9.4622],[-72.563,-9.5202],[-72.1849,-10.0536],[-71.3024,-10.0794],[-70.4819,-9.4901],[-70.5487,-11.0091],[-70.0938,-11.124],[-69.5297,-10.9517],[-68.6651,-12.5613],[-68.8801,-12.8997],[-68.9489,-14.4536],[-69.3395,-14.9532],[-69.1603,-15.324],[-69.3898,-15.6601],[-68.9596,-16.5007],[-69.8584,-18.0927],[-70.3726,-18.348],[-71.3753,-17.7738],[-71.462,-17.3635],[-73.4445,-16.3594],[-75.2379,-15.2657],[-76.0092,-14.6493],[-76.4235,-13.8232],[-76.2592,-13.535],[-77.1062,-12.2227],[-78.0922,-10.3777],[-79.037,-8.3866],[-79.4459,-7.9308],[-79.7606,-7.1943],[-80.5375,-6.5417],[-81.25,-6.1368],[-80.9263,-5.6906],[-81.4109,-4.7368],[-81.0997,-4.0364],[-80.3026,-3.4049],[-80.184,-3.8212],[-80.4693,-4.0593],[-80.4422,-4.4257],[-80.0289,-4.3461],[-79.625,-4.4542],[-79.2053,-4.9591],[-78.6399,-4.5478],[-78.4507,-3.8731],[-77.8379,-3.003],[-76.6354,-2.6087],[-75.545,-1.5616],[-75.2337,-0.9114],[-75.3732,-0.152],[-75.1066,-0.0572],[-74.4416,-0.5308],[-74.1224,-1.0028],[-73.6595,-1.2605],[-73.0704,-2.309],[-72.3258,-2.4342],[-71.7748,-2.1698],[-71.4136,-2.3428],[-70.8135,-2.2569],[-70.0477,-2.7252],[-70.6927,-3.7429],[-70.394,-3.7666],[-69.8936,-4.2982]]]},"properties":{"ADMIN":"Peru","ADM0_A3":"PER","ISO_A3":"PER","POP_EST":32510453.0,"country_name":"Peru"}},{"type":"Feature","geometry":{"type":"Polygon","coordinates":[[[-66.8763,1.2534],[-67.065,1.1301],[-67.26,1.72],[-67.5378,2.0372],[-67.8686,1.6925],[-69.817,1.7148],[-69.8046,1.0891],[-69.2186,0.9857],[-69.2524,0.6027],[-69.4524,0.7062],[-70.0156,0.5414],[-70.0207,-0.1852],[-69.5771,-0.55],[-69.4205,-1.1226],[-69.4441,-1.5563],[-69.8936,-4.2982],[-70.394,-3.7666],[-70.6927,-3.7429],[-70.0477,-2.7252],[-70.8135,-2.2569],[-71.4136,-2.3428],[-71.7748,-2.1698],[-72.3258,-2.4342],[-73.0704,-2.309],[-73.6595,-1.2605],[-74.1224,-1.0028],[-74.4416,-0.5308],[-75.1066,-0.0572],[-75.3732,-0.152],[-76.2923,0.416],[-76.5764,0.2569],[-77.425,0.3957],[-77.6686,0.8259],[-77.8551,0.8099],[-78.8553,1.3809],[-78.9909,1.6914],[-78.6178,1.7664],[-78.6621,2.2674],[-78.4276,2.6296],[-77.9315,2.6966],[-77.1277,3.8496],[-77.4963,4.0876],[-77.3076,4.668],[-77.5332,5.5828],[-77.3188,5.8454],[-77.4767,6.6911],[-77.8816,7.2238],[-77.7534,7.7098],[-77.4311,7.6381],[-77.2426,7.9353],[-77.4747,8.5243],[-77.3534,8.6705],[-76.8367,8.6387],[-76.0864,9.3368],[-75.6746,9.4432],[-75.6647,9.774],[-75.4804,10.619],[-74.9069,11.083],[-74.2768,11.102],[-74.1972,11.3105],[-73.4148,11.227],[-72.2382,11.9555],[-71.7541,12.4373],[-71.3998,12.376],[-71.1375,12.113],[-71.3316,11.7763],[-71.9739,11.6087],[-72.2276,11.1087],[-72.6147,10.822],[-72.9053,10.4503],[-73.0276,9.7368],[-73.305,9.152],[-72.7887,9.085],[-72.6605,8.6253],[-72.4399,8.4053],[-72.3609,8.0026],[-72.4797,7.6325],[-72.4445,7.4238],[-72.1984,7.3404],[-71.9602,6.9916],[-70.6742,7.0878],[-70.0933,6.9604],[-69.3895,6.0999],[-68.9853,6.2068],[-68.2651,6.1533],[-67.6951,6.2673],[-67.3414,6.0955],[-67.5215,5.5569],[-67.7447,5.2211],[-67.823,4.5039],[-67.6218,3.8395],[-67.3376,3.5423],[-67.3032,3.3185],[-67.8099,2.8207],[-67.4471,2.6003],[-67.1813,2.2506],[-66.8763,1.2534]]]},"properties":{"ADMIN":"Colombia","ADM0_A3":"COL","ISO_A3":"COL","POP_EST":50339443.0,"country_name":"Colombia"}},{"type":"Feature","geometry":{"type":"Polygon","coordinates":[[[-60.7336,5.2003],[-60.6012,4.9181],[-60.9669,4.5365],[-62.0854,4.1621],[-62.8045,4.007],[-63.0932,3.7706],[-63.8883,4.0205],[-64.6287,4.1485],[-64.8161,4.0564],[-64.3685,3.7972],[-64.4088,3.1268],[-64.27,2.497],[-63.4229,2.4111],[-63.3688,2.2009],[-64.0831,1.9164],[-64.1993,1.4929],[-65.3547,1.0953],[-65.5483,0.7893],[-66.3258,0.7245],[-66.8763,1.2534],[-67.1813,2.2506],[-67.4471,2.6003],[-67.8099,2.8207],[-67.3032,3.3185],[-67.3376,3.5423],[-67.6218,3.8395],[-67.823,4.5039],[-67.7447,5.2211],[-67.5215,5.5569],[-67.3414,6.0955],[-67.6951,6.2673],[-68.2651,6.1533],[-68.9853,6.2068],[-69.3895,6.0999],[-70.0933,6.9604],[-70.6742,7.0878],[-71.9602,6.9916],[-72.1984,7.3404],[-72.4445,7.4238],[-72.4797,7.6325],[-72.3609,8.0026],[-72.4399,8.4053],[-72.6605,8.6253],[-72.7887,9.085],[-73.305,9.152],[-73.0276,9.7368],[-72.9053,10.4503],[-72.6147,10.822],[-72.2276,11.1087],[-71.9739,11.6087],[-71.3316,11.7763],[-71.36,11.54],[-71.947,11.4233],[-71.6209,10.9695],[-71.6331,10.4465],[-72.0742,9.8657],[-71.6956,9.0723],[-71.2646,9.1372],[-71.04,9.86],[-71.3501,10.2119],[-71.4006,10.969],[-70.1553,11.3755],[-70.2938,11.8468],[-69.9432,12.1623],[-69.5843,11.4596],[-68.883,11.4434],[-68.2333,10.8857],[-68.1941,10.5547],[-67.2962,10.5459],[-66.2279,10.6486],[-65.6552,10.2008],[-64.8905,10.0772],[-64.3295,10.3896],[-64.318,10.6414],[-61.8809,10.7156],[-62.7301,10.4203],[-62.3885,9.9482],[-61.5888,9.8731],[-60.8306,9.3813],[-60.6713,8.5802],[-60.1501,8.6028],[-59.7583,8.367],[-60.5506,7.7796],[-60.638,7.415],[-60.2957,7.0439],[-60.544,6.8566],[-61.1593,6.6961],[-61.1394,6.2343],[-61.4103,5.9591],[-60.7336,5.2003]]]},"properties":{"ADMIN":"Venezuela","ADM0_A3":"VEN","ISO_A3":"VEN","POP_EST":28515829.0,"country_name":"Venezuela"}},{"type":"Feature","geometry":{"type":"Polygon","coordinates":[[[-56.5394,1.8995],[-56.7827,1.8637],[-57.3358,1.9485],[-57.661,1.6826],[-58.1134,1.5072],[-58.4295,1.4639],[-58.54,1.2681],[-59.0309,1.3177],[-59.646,1.7869],[-59.7185,2.2496],[-59.9745,2.7552],[-59.8154,3.6065],[-59.538,3.9588],[-59.7674,4.4235],[-60.111,4.575],[-59.981,5.0141],[-60.2137,5.2445],[-60.7336,5.2003],[-61.4103,5.9591],[-61.1394,6.2343],[-61.1593,6.6961],[-60.544,6.8566],[-60.2957,7.0439],[-60.638,7.415],[-60.5506,7.7796],[-59.7583,8.367],[-59.1017,7.9992],[-58.483,7.3477],[-58.4549,6.8328],[-58.0781,6.8091],[-57.1474,5.9731],[-57.3072,5.0736],[-57.9143,4.8126],[-57.8602,4.5768],[-58.0447,4.0609],[-57.6016,3.3347],[-57.2814,3.3335],[-57.1501,2.7689],[-56.5394,1.8995]]]},"properties":{"ADMIN":"Guyana","ADM0_A3":"GUY","ISO_A3":"GUY","POP_EST":782766.0,"country_name":"Guyana"}},{"type":"Feature","geometry":{"type":"Polygon","coordinates":[[[-54.5248,2.3118],[-55.0976,2.5237],[-55.5698,2.4215],[-55.9733,2.5104],[-56.0733,2.2208],[-55.9056,2.022],[-55.9957,1.8177],[-56.5394,1.8995],[-57.1501,2.7689],[-57.2814,3.3335],[-57.6016,3.3347],[-58.0447,4.0609],[-57.8602,4.5768],[-57.9143,4.8126],[-57.3072,5.0736],[-57.1474,5.9731],[-55.9493,5.7729],[-55.8418,5.9531],[-55.0333,6.0253],[-53.958,5.7565],[-54.4786,4.8968],[-54.3995,4.2126],[-54.0069,3.62],[-54.1817,3.1898],[-54.2697,2.7324],[-54.5248,2.3118]]]},"properties":{"ADMIN":"Suriname","ADM0_A3":"SUR","ISO_A3":"SUR","POP_EST":581363.0,"country_name":"Suriname"}},{"type":"Feature","geometry":{"type":"Polygon","coordinates":[[[-75.3732,-0.152],[-75.2337,-0.9114],[-75.545,-1.5616],[-76.6354,-2.6087],[-77.8379,-3.003],[-78.4507,-3.8731],[-78.6399,-4.5478],[-79.2053,-4.9591],[-79.625,-4.4542],[-80.0289,-4.3461],[-80.4422,-4.4257],[-80.4693,-4.0593],[-80.184,-3.8212],[-80.3026,-3.4049],[-79.7703,-2.6575],[-79.9866,-2.2208],[-80.3688,-2.6852],[-80.9678,-2.2469],[-80.7648,-1.965],[-80.9337,-1.0575],[-80.5834,-0.9067],[-80.3993,-0.2837],[-80.0209,0.3603],[-80.0906,0.7684],[-79.5428,0.9829],[-78.8553,1.3809],[-77.8551,0.8099],[-77.6686,0.8259],[-77.425,0.3957],[-76.5764,0.2569],[-76.2923,0.416],[-75.3732,-0.152]]]},"properties":{"ADMIN":"Ecuador","ADM0_A3":"ECU","ISO_A3":"ECU","POP_EST":17373662.0,"country_name":"Ecuador"}},{"type":"Feature","geometry":{"type":"Polygon","coordinates":[[[-58.1664,-20.1767],[-57.8707,-20.7327],[-57.9372,-22.0902],[-56.8815,-22.2822],[-56.4733,-22.0863],[-55.798,-22.3569],[-55.6107,-22.6556],[-55.5176,-23.572],[-55.4007,-23.9569],[-55.0279,-24.0013],[-54.6528,-23.8396],[-54.293,-24.021],[-54.2935,-24.5708],[-54.4289,-25.1622],[-54.6253,-25.7393],[-54.7888,-26.6218],[-55.6958,-27.3878],[-56.4867,-27.5485],[-57.6098,-27.3959],[-58.6182,-27.1237],[-57.6337,-25.6037],[-57.7772,-25.1623],[-58.8071,-24.7715],[-60.029,-24.0328],[-60.8466,-23.8807],[-62.6851,-22.249],[-62.2912,-21.0516],[-62.266,-20.5137],[-61.7863,-19.6337],[-60.0436,-19.3427],[-59.115,-19.3569],[-58.1835,-19.8684],[-58.1664,-20.1767]]]},"properties":{"ADMIN":"Paraguay","ADM0_A3":"PRY","ISO_A3":"PRY","POP_EST":7044636.0,"country_name":"Paraguay"}}]}